[{"OBJECT_NAME":"QIANFAN-23","OBJECT_ID":"2024-185E","EPOCH":"2026-03-09T22:52:44.891904","MEAN_MOTION":14.16398048,"ECCENTRICITY":0.00092256,"INCLINATION":88.9755,"RA_OF_ASC_NODE":67.6947,"ARG_OF_PERICENTER":47.6437,"MEAN_ANOMALY":312.5531,"EPHEMERIS_TYPE":0,"CLASSIFICATION_TYPE":"U","NORAD_CAT_ID":61556,"ELEMENT_SET_NO":999,"REV_AT_EPOCH":8209,"BSTAR":0.00033141265,"MEAN_MOTION_DOT":6.72e-6,"MEAN_MOTION_DDOT":0},{"OBJECT_NAME":"SUNSAT (SO-35)","OBJECT_ID":"1999-008C","EPOCH":"2026-03-09T17:08:32.445888","MEAN_MOTION":14.46420611,"ECCENTRICITY":0.01402409,"INCLINATION":96.4828,"RA_OF_ASC_NODE":328.8226,"ARG_OF_PERICENTER":284.7553,"MEAN_ANOMALY":73.814,"EPHEMERIS_TYPE":0,"CLASSIFICATION_TYPE":"U","NORAD_CAT_ID":25636,"ELEMENT_SET_NO":999,"REV_AT_EPOCH":42485,"BSTAR":9.4693269e-5,"MEAN_MOTION_DOT":3.51e-6,"MEAN_MOTION_DDOT":0}]
